ONEWEB-0672             
1 55831U 23029AM  25276.20233730  .00000027  00000+0  33888-4 0  9992
2 55831  87.9237 325.6848 0002183  93.3501 266.7882 13.20771365127229
ONEWEB-0673             
1 55832U 23029AN  25276.62740594  .00000025  00000+0  30346-4 0  9994
2 55832  87.9290 355.9830 0001849 106.8173 253.3163 13.19727162125067
ONEWEB-0674             
1 55833U 23029AP  25276.20693405 -.00000133  00000+0 -39262-3 0  9994
2 55833  87.9060 340.9175 0001450  89.0863 271.0432 13.14502471125655
ONEWEB-0675             
1 55834U 23029AQ  25277.47718664  .00000098  00000+0  21145-3 0  9999
2 55834  87.9274 355.8560 0002186 102.5833 257.5545 13.19727799125191
ONEWEB-0720             
1 55835U 23029AR  25277.46928190 -.00000179  00000+0 -48020-3 0  9999
2 55835  87.9276 355.8543 0001654 111.7990 248.3319 13.19725932125116
ONEWEB-0537             
1 56046U 23043A   25277.46483862  .00000154  00000+0  36840-3 0  9990
2 56046  87.8982 279.7203 0002123  90.8482 269.2892 13.16595472125317
ONEWEB-0538             
1 56047U 23043B   25277.45848948 -.00000021  00000+0 -88538-4 0  9997
2 56047  87.8969 279.7319 0002052  96.5984 263.5381 13.16591284125320
ONEWEB-0546             
1 56048U 23043C   25277.44583171  .00000126  00000+0  29484-3 0  9999
2 56048  87.8978 279.7180 0002550  84.1946 275.9476 13.16594147125313
ONEWEB-0547             
1 56049U 23043D   25277.47131928  .00000128  00000+0  27943-3 0  9992
2 56049  87.9178 295.0005 0001864  97.1986 262.9360 13.21826653124446
ONEWEB-0548             
1 56050U 23043E   25277.47115044  .00000029  00000+0  40992-4 0  9995
2 56050  87.8959 279.7320 0001628  76.6550 283.4762 13.16592507125313
ONEWEB-0549             
1 56051U 23043F   25277.46264801  .00000193  00000+0  43589-3 0  9997
2 56051  87.9180 295.0176 0001924 100.7911 259.3439 13.21826215124448
ONEWEB-0550             
1 56052U 23043G   25277.45002959  .00000033  00000+0  49073-4 0  9999
2 56052  87.9177 295.0149 0001868  88.0719 272.0629 13.21826104124446
ONEWEB-0551             
1 56053U 23043H   25277.45049987  .00000068  00000+0  14536-3 0  9995
2 56053  87.8991 310.2723 0001834 102.1704 257.9632 13.15547588122772
ONEWEB-0552             
1 56054U 23043J   25277.44370034 -.00000014  00000+0 -64862-4 0  9996
2 56054  87.9175 295.0246 0001670  99.3641 260.7682 13.21827759124444
ONEWEB-0553             
1 56055U 23043K   25277.45216497  .00000094  00000+0  21300-3 0  9995
2 56055  87.8968 279.7310 0002167  83.4847 276.6531 13.16593396125327
ONEWEB-0554             
1 56056U 23043L   25277.43950598  .00000129  00000+0  30269-3 0  9994
2 56056  87.8954 279.7561 0001779  83.0342 277.0991 13.16595258125307
ONEWEB-0555             
1 56057U 23043M   25277.47749233  .00000013  00000+0  53184-6 0  9997
2 56057  87.8972 279.7206 0002359  81.8934 278.2464 13.16593809125311
