[{"OBJECT_NAME":"ONEWEB-0672","OBJECT_ID":"2023-029AM","EPOCH":"2025-10-03T04:51:21.942720","MEAN_MOTION":13.20771365,"ECCENTRICITY":0.00021836,"INCLINATION":87.9237,"RA_OF_ASC_NODE":325.6848,"ARG_OF_PERICENTER":93.3501,"MEAN_ANOMALY":266.7882,"EPHEMERIS_TYPE":0,"CLASSIFICATION_TYPE":"U","NORAD_CAT_ID":55831,"ELEMENT_SET_NO":999,"REV_AT_EPOCH":12722,"BSTAR":3.3887586e-5,"MEAN_MOTION_DOT":2.7e-7,"MEAN_MOTION_DDOT":0},{"OBJECT_NAME":"ONEWEB-0673","OBJECT_ID":"2023-029AN","EPOCH":"2025-10-03T15:03:27.873216","MEAN_MOTION":13.19727162,"ECCENTRICITY":0.00018494,"INCLINATION":87.929,"RA_OF_ASC_NODE":355.983,"ARG_OF_PERICENTER":106.8173,"MEAN_ANOMALY":253.3163,"EPHEMERIS_TYPE":0,"CLASSIFICATION_TYPE":"U","NORAD_CAT_ID":55832,"ELEMENT_SET_NO":999,"REV_AT_EPOCH":12506,"BSTAR":3.0346039e-5,"MEAN_MOTION_DOT":2.5e-7,"MEAN_MOTION_DDOT":0},{"OBJECT_NAME":"ONEWEB-0674","OBJECT_ID":"2023-029AP","EPOCH":"2025-10-03T04:57:59.101920","MEAN_MOTION":13.14502471,"ECCENTRICITY":0.00014501,"INCLINATION":87.906,"RA_OF_ASC_NODE":340.9175,"ARG_OF_PERICENTER":89.0863,"MEAN_ANOMALY":271.0432,"EPHEMERIS_TYPE":0,"CLASSIFICATION_TYPE":"U","NORAD_CAT_ID":55833,"ELEMENT_SET_NO":999,"REV_AT_EPOCH":12565,"BSTAR":-0.00039261711,"MEAN_MOTION_DOT":-1.33e-6,"MEAN_MOTION_DDOT":0},{"OBJECT_NAME":"ONEWEB-0675","OBJECT_ID":"2023-029AQ","EPOCH":"2025-10-04T11:27:08.925696","MEAN_MOTION":13.19727799,"ECCENTRICITY":0.0002186,"INCLINATION":87.9274,"RA_OF_ASC_NODE":355.856,"ARG_OF_PERICENTER":102.5833,"MEAN_ANOMALY":257.5545,"EPHEMERIS_TYPE":0,"CLASSIFICATION_TYPE":"U","NORAD_CAT_ID":55834,"ELEMENT_SET_NO":999,"REV_AT_EPOCH":12519,"BSTAR":0.00021145,"MEAN_MOTION_DOT":9.8e-7,"MEAN_MOTION_DDOT":0},{"OBJECT_NAME":"ONEWEB-0720","OBJECT_ID":"2023-029AR","EPOCH":"2025-10-04T11:15:45.956160","MEAN_MOTION":13.19725932,"ECCENTRICITY":0.0001654,"INCLINATION":87.9276,"RA_OF_ASC_NODE":355.8543,"ARG_OF_PERICENTER":111.799,"MEAN_ANOMALY":248.3319,"EPHEMERIS_TYPE":0,"CLASSIFICATION_TYPE":"U","NORAD_CAT_ID":55835,"ELEMENT_SET_NO":999,"REV_AT_EPOCH":12511,"BSTAR":-0.0004802,"MEAN_MOTION_DOT":-1.79e-6,"MEAN_MOTION_DDOT":0},{"OBJECT_NAME":"ONEWEB-0537","OBJECT_ID":"2023-043A","EPOCH":"2025-10-04T11:09:22.056768","MEAN_MOTION":13.16595472,"ECCENTRICITY":0.0002123,"INCLINATION":87.8982,"RA_OF_ASC_NODE":279.7203,"ARG_OF_PERICENTER":90.8482,"MEAN_ANOMALY":269.2892,"EPHEMERIS_TYPE":0,"CLASSIFICATION_TYPE":"U","NORAD_CAT_ID":56046,"ELEMENT_SET_NO":999,"REV_AT_EPOCH":12531,"BSTAR":0.0003684,"MEAN_MOTION_DOT":1.54e-6,"MEAN_MOTION_DDOT":0},{"OBJECT_NAME":"ONEWEB-0538","OBJECT_ID":"2023-043B","EPOCH":"2025-10-04T11:00:13.491072","MEAN_MOTION":13.16591284,"ECCENTRICITY":0.0002052,"INCLINATION":87.8969,"RA_OF_ASC_NODE":279.7319,"ARG_OF_PERICENTER":96.5984,"MEAN_ANOMALY":263.5381,"EPHEMERIS_TYPE":0,"CLASSIFICATION_TYPE":"U","NORAD_CAT_ID":56047,"ELEMENT_SET_NO":999,"REV_AT_EPOCH":12532,"BSTAR":-8.8538e-5,"MEAN_MOTION_DOT":-2.1e-7,"MEAN_MOTION_DDOT":0},{"OBJECT_NAME":"ONEWEB-0546","OBJECT_ID":"2023-043C","EPOCH":"2025-10-04T10:41:59.859744","MEAN_MOTION":13.16594147,"ECCENTRICITY":0.000255,"INCLINATION":87.8978,"RA_OF_ASC_NODE":279.718,"ARG_OF_PERICENTER":84.1946,"MEAN_ANOMALY":275.9476,"EPHEMERIS_TYPE":0,"CLASSIFICATION_TYPE":"U","NORAD_CAT_ID":56048,"ELEMENT_SET_NO":999,"REV_AT_EPOCH":12531,"BSTAR":0.00029484,"MEAN_MOTION_DOT":1.26e-6,"MEAN_MOTION_DDOT":0},{"OBJECT_NAME":"ONEWEB-0547","OBJECT_ID":"2023-043D","EPOCH":"2025-10-04T11:18:41.985792","MEAN_MOTION":13.21826653,"ECCENTRICITY":0.0001864,"INCLINATION":87.9178,"RA_OF_ASC_NODE":295.0005,"ARG_OF_PERICENTER":97.1986,"MEAN_ANOMALY":262.936,"EPHEMERIS_TYPE":0,"CLASSIFICATION_TYPE":"U","NORAD_CAT_ID":56049,"ELEMENT_SET_NO":999,"REV_AT_EPOCH":12444,"BSTAR":0.00027943,"MEAN_MOTION_DOT":1.28e-6,"MEAN_MOTION_DDOT":0},{"OBJECT_NAME":"ONEWEB-0548","OBJECT_ID":"2023-043E","EPOCH":"2025-10-04T11:18:27.398016","MEAN_MOTION":13.16592507,"ECCENTRICITY":0.0001628,"INCLINATION":87.8959,"RA_OF_ASC_NODE":279.732,"ARG_OF_PERICENTER":76.655,"MEAN_ANOMALY":283.4762,"EPHEMERIS_TYPE":0,"CLASSIFICATION_TYPE":"U","NORAD_CAT_ID":56050,"ELEMENT_SET_NO":999,"REV_AT_EPOCH":12531,"BSTAR":4.0992e-5,"MEAN_MOTION_DOT":2.9e-7,"MEAN_MOTION_DDOT":0},{"OBJECT_NAME":"ONEWEB-0549","OBJECT_ID":"2023-043F","EPOCH":"2025-10-04T11:06:12.788064","MEAN_MOTION":13.21826215,"ECCENTRICITY":0.0001924,"INCLINATION":87.918,"RA_OF_ASC_NODE":295.0176,"ARG_OF_PERICENTER":100.7911,"MEAN_ANOMALY":259.3439,"EPHEMERIS_TYPE":0,"CLASSIFICATION_TYPE":"U","NORAD_CAT_ID":56051,"ELEMENT_SET_NO":999,"REV_AT_EPOCH":12444,"BSTAR":0.00043589,"MEAN_MOTION_DOT":1.93e-6,"MEAN_MOTION_DDOT":0},{"OBJECT_NAME":"ONEWEB-0550","OBJECT_ID":"2023-043G","EPOCH":"2025-10-04T10:48:02.556576","MEAN_MOTION":13.21826104,"ECCENTRICITY":0.0001868,"INCLINATION":87.9177,"RA_OF_ASC_NODE":295.0149,"ARG_OF_PERICENTER":88.0719,"MEAN_ANOMALY":272.0629,"EPHEMERIS_TYPE":0,"CLASSIFICATION_TYPE":"U","NORAD_CAT_ID":56052,"ELEMENT_SET_NO":999,"REV_AT_EPOCH":12444,"BSTAR":4.9073e-5,"MEAN_MOTION_DOT":3.3e-7,"MEAN_MOTION_DDOT":0},{"OBJECT_NAME":"ONEWEB-0551","OBJECT_ID":"2023-043H","EPOCH":"2025-10-04T10:48:43.188768","MEAN_MOTION":13.15547588,"ECCENTRICITY":0.0001834,"INCLINATION":87.8991,"RA_OF_ASC_NODE":310.2723,"ARG_OF_PERICENTER":102.1704,"MEAN_ANOMALY":257.9632,"EPHEMERIS_TYPE":0,"CLASSIFICATION_TYPE":"U","NORAD_CAT_ID":56053,"ELEMENT_SET_NO":999,"REV_AT_EPOCH":12277,"BSTAR":0.00014536,"MEAN_MOTION_DOT":6.8e-7,"MEAN_MOTION_DDOT":0},{"OBJECT_NAME":"ONEWEB-0552","OBJECT_ID":"2023-043J","EPOCH":"2025-10-04T10:38:55.709376","MEAN_MOTION":13.21827759,"ECCENTRICITY":0.000167,"INCLINATION":87.9175,"RA_OF_ASC_NODE":295.0246,"ARG_OF_PERICENTER":99.3641,"MEAN_ANOMALY":260.7682,"EPHEMERIS_TYPE":0,"CLASSIFICATION_TYPE":"U","NORAD_CAT_ID":56054,"ELEMENT_SET_NO":999,"REV_AT_EPOCH":12444,"BSTAR":-6.4862e-5,"MEAN_MOTION_DOT":-1.4e-7,"MEAN_MOTION_DDOT":0},{"OBJECT_NAME":"ONEWEB-0553","OBJECT_ID":"2023-043K","EPOCH":"2025-10-04T10:51:07.053408","MEAN_MOTION":13.16593396,"ECCENTRICITY":0.0002167,"INCLINATION":87.8968,"RA_OF_ASC_NODE":279.731,"ARG_OF_PERICENTER":83.4847,"MEAN_ANOMALY":276.6531,"EPHEMERIS_TYPE":0,"CLASSIFICATION_TYPE":"U","NORAD_CAT_ID":56055,"ELEMENT_SET_NO":999,"REV_AT_EPOCH":12532,"BSTAR":0.000213,"MEAN_MOTION_DOT":9.4e-7,"MEAN_MOTION_DDOT":0},{"OBJECT_NAME":"ONEWEB-0554","OBJECT_ID":"2023-043L","EPOCH":"2025-10-04T10:32:53.316672","MEAN_MOTION":13.16595258,"ECCENTRICITY":0.0001779,"INCLINATION":87.8954,"RA_OF_ASC_NODE":279.7561,"ARG_OF_PERICENTER":83.0342,"MEAN_ANOMALY":277.0991,"EPHEMERIS_TYPE":0,"CLASSIFICATION_TYPE":"U","NORAD_CAT_ID":56056,"ELEMENT_SET_NO":999,"REV_AT_EPOCH":12530,"BSTAR":0.00030269,"MEAN_MOTION_DOT":1.29e-6,"MEAN_MOTION_DDOT":0},{"OBJECT_NAME":"ONEWEB-0555","OBJECT_ID":"2023-043M","EPOCH":"2025-10-04T11:27:35.337312","MEAN_MOTION":13.16593809,"ECCENTRICITY":0.0002359,"INCLINATION":87.8972,"RA_OF_ASC_NODE":279.7206,"ARG_OF_PERICENTER":81.8934,"MEAN_ANOMALY":278.2464,"EPHEMERIS_TYPE":0,"CLASSIFICATION_TYPE":"U","NORAD_CAT_ID":56057,"ELEMENT_SET_NO":999,"REV_AT_EPOCH":12531,"BSTAR":5.3184e-7,"MEAN_MOTION_DOT":1.3e-7,"MEAN_MOTION_DDOT":0}]
